{"type": "FeatureCollection", "features": [ {"type": "Feature", "properties": {"norad_id": 66396, "name": "STARLINK-35669", "group": "last-30-days", "lat": 37.35720690561258, "lon": 87.52419458082052, "alt_km": 412.80338295759884, "timestamp": "2025-12-04T15:47:52.868114+00:00", "meta": {"OBJECT_NAME": "STARLINK-35669", "OBJECT_ID": "2025-257S", "EPOCH": "2025-12-04T07:29:46.424832", "MEAN_MOTION": 15.49349426, "ECCENTRICITY": 0.0001461, "INCLINATION": 53.1592, "RA_OF_ASC_NODE": 304.092, "ARG_OF_PERICENTER": 96.8275, "MEAN_ANOMALY": 263.29, "EPHEMERIS_TYPE": 0, "CLASSIFICATION_TYPE": "U", "NORAD_CAT_ID": 66396, "ELEMENT_SET_NO": 999, "REV_AT_EPOCH": 507, "BSTAR": 0.0015262589, "MEAN_MOTION_DOT": 0.00085492, "MEAN_MOTION_DDOT": 0}, "tle": {"line1": "1 66396U 25257S   25338.31234288  .00085492  00000+0  15263-2 0  9999", "line2": "2 66396  53.1592 304.0920 0001461  96.8275 263.2900 15.49349426  5075"}}, "geometry": {"type": "Point", "coordinates": [87.52419458082052, 37.35720690561258]}}, {"type": "Feature", "properties": {"norad_id": 66397, "name": "STARLINK-35510", "group": "last-30-days", "lat": 36.05222264285838, "lon": 89.35656707551011, "alt_km": 412.9845799173336, "timestamp": "2025-12-04T15:47:52.868125+00:00", "meta": {"OBJECT_NAME": "STARLINK-35510", "OBJECT_ID": "2025-257T", "EPOCH": "2025-12-04T05:56:23.437536", "MEAN_MOTION": 15.4935713, "ECCENTRICITY": 0.00014032, "INCLINATION": 53.1592, "RA_OF_ASC_NODE": 304.3984, "ARG_OF_PERICENTER": 89.9163, "MEAN_ANOMALY": 270.2007, "EPHEMERIS_TYPE": 0, "CLASSIFICATION_TYPE": "U", "NORAD_CAT_ID": 66397, "ELEMENT_SET_NO": 999, "REV_AT_EPOCH": 506, "BSTAR": 0.0022239664, "MEAN_MOTION_DOT": 0.00125457, "MEAN_MOTION_DDOT": 0}, "tle": {"line1": "1 66397U 25257T   25338.24749349  .00125457  00000+0  22240-2 0  9990", "line2": "2 66397  53.1592 304.3984 0001403  89.9163 270.2007 15.49357130  5060"}}, "geometry": {"type": "Point", "coordinates": [89.35656707551011, 36.05222264285838]}}, {"type": "Feature", "properties": {"norad_id": 66398, "name": "STARLINK-35642", "group": "last-30-days", "lat": 34.73489652844174, "lon": 91.1088319877209, "alt_km": 413.22076471494256, "timestamp": "2025-12-04T15:47:52.868135+00:00", "meta": {"OBJECT_NAME": "STARLINK-35642", "OBJECT_ID": "2025-257U", "EPOCH": "2025-12-04T07:28:46.935840", "MEAN_MOTION": 15.49378769, "ECCENTRICITY": 0.00012971, "INCLINATION": 53.1592, "RA_OF_ASC_NODE": 304.0872, "ARG_OF_PERICENTER": 87.9652, "MEAN_ANOMALY": 272.1505, "EPHEMERIS_TYPE": 0, "CLASSIFICATION_TYPE": "U", "NORAD_CAT_ID": 66398, "ELEMENT_SET_NO": 999, "REV_AT_EPOCH": 507, "BSTAR": 0.0027170893, "MEAN_MOTION_DOT": 0.00154059, "MEAN_MOTION_DDOT": 0}, "tle": {"line1": "1 66398U 25257U   25338.31165435  .00154059  00000+0  27171-2 0  9995", "line2": "2 66398  53.1592 304.0872 0001297  87.9652 272.1505 15.49378769  5072"}}, "geometry": {"type": "Point", "coordinates": [91.1088319877209, 34.73489652844174]}}, {"type": "Feature", "properties": {"norad_id": 66399, "name": "STARLINK-35657", "group": "last-30-days", "lat": 33.3820642492208, "lon": 92.82011134857434, "alt_km": 413.4804628668353, "timestamp": "2025-12-04T15:47:52.868145+00:00", "meta": {"OBJECT_NAME": "STARLINK-35657", "OBJECT_ID": "2025-257V", "EPOCH": "2025-12-04T05:55:23.577888", "MEAN_MOTION": 15.49382223, "ECCENTRICITY": 0.00012082, "INCLINATION": 53.1594, "RA_OF_ASC_NODE": 304.3938, "ARG_OF_PERICENTER": 88.8873, "MEAN_ANOMALY": 271.2274, "EPHEMERIS_TYPE": 0, "CLASSIFICATION_TYPE": "U", "NORAD_CAT_ID": 66399, "ELEMENT_SET_NO": 999, "REV_AT_EPOCH": 506, "BSTAR": 0.0022649568, "MEAN_MOTION_DOT": 0.00127932, "MEAN_MOTION_DDOT": 0}, "tle": {"line1": "1 66399U 25257V   25338.24680067  .00127932  00000+0  22650-2 0  9998", "line2": "2 66399  53.1594 304.3938 0001208  88.8873 271.2274 15.49382223  5060"}}, "geometry": {"type": "Point", "coordinates": [92.82011134857434, 33.3820642492208]}}, {"type": "Feature", "properties": {"norad_id": 66400, "name": "STARLINK-35667", "group": "last-30-days", "lat": 30.726507563534764, "lon": 95.95277310525474, "alt_km": 413.9018377004504, "timestamp": "2025-12-04T15:47:52.868155+00:00", "meta": {"OBJECT_NAME": "STARLINK-35667", "OBJECT_ID": "2025-257W", "EPOCH": "2025-12-04T05:54:24.702336", "MEAN_MOTION": 15.49350189, "ECCENTRICITY": 0.00015234, "INCLINATION": 53.1594, "RA_OF_ASC_NODE": 304.3879, "ARG_OF_PERICENTER": 90.9477, "MEAN_ANOMALY": 269.1707, "EPHEMERIS_TYPE": 0, "CLASSIFICATION_TYPE": "U", "NORAD_CAT_ID": 66400, "ELEMENT_SET_NO": 999, "REV_AT_EPOCH": 506, "BSTAR": 0.0020733438, "MEAN_MOTION_DOT": 0.00116771, "MEAN_MOTION_DDOT": 0}, "tle": {"line1": "1 66400U 25257W   25338.24611924  .00116771  00000+0  20733-2 0  9996", "line2": "2 66400  53.1594 304.3879 0001523  90.9477 269.1707 15.49350189  5064"}}, "geometry": {"type": "Point", "coordinates": [95.95277310525474, 30.726507563534764]}}, {"type": "Feature", "properties": {"norad_id": 66401, "name": "STARLINK-35668", "group": "last-30-days", "lat": 29.30582631300478, "lon": 97.52541572884178, "alt_km": 414.0466120904084, "timestamp": "2025-12-04T15:47:52.868168+00:00", "meta": {"OBJECT_NAME": "STARLINK-35668", "OBJECT_ID": "2025-257X", "EPOCH": "2025-12-04T05:53:55.042944", "MEAN_MOTION": 15.4936916, "ECCENTRICITY": 0.00014232, "INCLINATION": 53.1592, "RA_OF_ASC_NODE": 304.386, "ARG_OF_PERICENTER": 91.0744, "MEAN_ANOMALY": 269.0428, "EPHEMERIS_TYPE": 0, "CLASSIFICATION_TYPE": "U", "NORAD_CAT_ID": 66401, "ELEMENT_SET_NO": 999, "REV_AT_EPOCH": 506, "BSTAR": 0.0028142247, "MEAN_MOTION_DOT": 0.00159644, "MEAN_MOTION_DDOT": 0}, "tle": {"line1": "1 66401U 25257X   25338.24577596  .00159644  00000+0  28142-2 0  9991", "line2": "2 66401  53.1592 304.3860 0001423  91.0744 269.0428 15.49369160  5069"}}, "geometry": {"type": "Point", "coordinates": [97.52541572884178, 29.30582631300478]}}, {"type": "Feature", "properties": {"norad_id": 66402, "name": "STARLINK-35644", "group": "last-30-days", "lat": 32.110729206798474, "lon": 94.35407144199479, "alt_km": 413.9626433605845, "timestamp": "2025-12-04T15:47:52.868179+00:00", "meta": {"OBJECT_NAME": "STARLINK-35644", "OBJECT_ID": "2025-257Y", "EPOCH": "2025-12-04T05:54:54.323712", "MEAN_MOTION": 15.49343598, "ECCENTRICITY": 0.00013272, "INCLINATION": 53.1593, "RA_OF_ASC_NODE": 304.391, "ARG_OF_PERICENTER": 80.5414, "MEAN_ANOMALY": 279.5745, "EPHEMERIS_TYPE": 0, "CLASSIFICATION_TYPE": "U", "NORAD_CAT_ID": 66402, "ELEMENT_SET_NO": 999, "REV_AT_EPOCH": 506, "BSTAR": 0.0015421122, "MEAN_MOTION_DOT": 0.00086377, "MEAN_MOTION_DDOT": 0}, "tle": {"line1": "1 66402U 25257Y   25338.24646208  .00086377  00000+0  15421-2 0  9997", "line2": "2 66402  53.1593 304.3910 0001327  80.5414 279.5745 15.49343598  5062"}}, "geometry": {"type": "Point", "coordinates": [94.35407144199479, 32.110729206798474]}}, {"type": "Feature", "properties": {"norad_id": 66403, "name": "STARLINK-35602", "group": "last-30-days", "lat": 27.935379605444886, "lon": 98.98345084194985, "alt_km": 414.4362717142103, "timestamp": "2025-12-04T15:47:52.868189+00:00", "meta": {"OBJECT_NAME": "STARLINK-35602", "OBJECT_ID": "2025-257Z", "EPOCH": "2025-12-04T05:53:25.228896", "MEAN_MOTION": 15.49358398, "ECCENTRICITY": 0.00014154, "INCLINATION": 53.1592, "RA_OF_ASC_NODE": 304.384, "ARG_OF_PERICENTER": 92.9774, "MEAN_ANOMALY": 267.1397, "EPHEMERIS_TYPE": 0, "CLASSIFICATION_TYPE": "U", "NORAD_CAT_ID": 66403, "ELEMENT_SET_NO": 999, "REV_AT_EPOCH": 506, "BSTAR": 0.0018043553, "MEAN_MOTION_DOT": 0.00101391, "MEAN_MOTION_DDOT": 0}, "tle": {"line1": "1 66403U 25257Z   25338.24543089  .00101391  00000+0  18044-2 0  9999", "line2": "2 66403  53.1592 304.3840 0001415  92.9774 267.1397 15.49358398  5068"}}, "geometry": {"type": "Point", "coordinates": [98.98345084194985, 27.935379605444886]}}, {"type": "Feature", "properties": {"norad_id": 66404, "name": "STARLINK-35691", "group": "last-30-days", "lat": 26.505523813274138, "lon": 100.4478472497307, "alt_km": 414.61249028885504, "timestamp": "2025-12-04T15:47:52.868200+00:00", "meta": {"OBJECT_NAME": "STARLINK-35691", "OBJECT_ID": "2025-257AA", "EPOCH": "2025-12-04T05:52:55.658496", "MEAN_MOTION": 15.49357701, "ECCENTRICITY": 0.00014755, "INCLINATION": 53.1592, "RA_OF_ASC_NODE": 304.3805, "ARG_OF_PERICENTER": 90.49, "MEAN_ANOMALY": 269.6279, "EPHEMERIS_TYPE": 0, "CLASSIFICATION_TYPE": "U", "NORAD_CAT_ID": 66404, "ELEMENT_SET_NO": 999, "REV_AT_EPOCH": 506, "BSTAR": 0.0024972692, "MEAN_MOTION_DOT": 0.0014122, "MEAN_MOTION_DDOT": 0}, "tle": {"line1": "1 66404U 25257AA  25338.24508864  .00141220  00000+0  24973-2 0  9995", "line2": "2 66404  53.1592 304.3805 0001475  90.4900 269.6279 15.49357701  5063"}}, "geometry": {"type": "Point", "coordinates": [100.4478472497307, 26.505523813274138]}}, {"type": "Feature", "properties": {"norad_id": 66405, "name": "STARLINK-35683", "group": "last-30-days", "lat": 25.107705611109747, "lon": 101.83134945048813, "alt_km": 414.94188062807916, "timestamp": "2025-12-04T15:47:52.868218+00:00", "meta": {"OBJECT_NAME": "STARLINK-35683", "OBJECT_ID": "2025-257AB", "EPOCH": "2025-12-04T05:52:25.949856", "MEAN_MOTION": 15.49347975, "ECCENTRICITY": 0.00013881, "INCLINATION": 53.1592, "RA_OF_ASC_NODE": 304.3779, "ARG_OF_PERICENTER": 97.8325, "MEAN_ANOMALY": 262.2842, "EPHEMERIS_TYPE": 0, "CLASSIFICATION_TYPE": "U", "NORAD_CAT_ID": 66405, "ELEMENT_SET_NO": 999, "REV_AT_EPOCH": 499, "BSTAR": 0.0016557715, "MEAN_MOTION_DOT": 0.00092868, "MEAN_MOTION_DDOT": 0}, "tle": {"line1": "1 66405U 25257AB  25338.24474479  .00092868  00000+0  16558-2 0  9993", "line2": "2 66405  53.1592 304.3779 0001388  97.8325 262.2842 15.49347975  4997"}}, "geometry": {"type": "Point", "coordinates": [101.83134945048813, 25.107705611109747]}}]}